[{"OBJECT_NAME":"OBJECT C","OBJECT_ID":"2024-092C","EPOCH":"2026-03-09T23:10:26.961312","MEAN_MOTION":15.27308901,"ECCENTRICITY":0.00097974,"INCLINATION":97.6475,"RA_OF_ASC_NODE":197.1606,"ARG_OF_PERICENTER":169.1353,"MEAN_ANOMALY":191.0098,"EPHEMERIS_TYPE":0,"CLASSIFICATION_TYPE":"U","NORAD_CAT_ID":59775,"ELEMENT_SET_NO":999,"REV_AT_EPOCH":10042,"BSTAR":0.00057925748,"MEAN_MOTION_DOT":0.00015454,"MEAN_MOTION_DDOT":0},{"OBJECT_NAME":"STARLINK-36418","OBJECT_ID":"2026-005U","EPOCH":"2026-03-09T12:24:33.246144","MEAN_MOTION":15.27602228,"ECCENTRICITY":0.00018181,"INCLINATION":43.0021,"RA_OF_ASC_NODE":238.6486,"ARG_OF_PERICENTER":284.6926,"MEAN_ANOMALY":75.3724,"EPHEMERIS_TYPE":0,"CLASSIFICATION_TYPE":"U","NORAD_CAT_ID":67422,"ELEMENT_SET_NO":999,"REV_AT_EPOCH":867,"BSTAR":0.0009444374,"MEAN_MOTION_DOT":0.00025836,"MEAN_MOTION_DDOT":0}]
